<?xml version='1.0' encoding='UTF-8'?>
<gpx version="1.1" creator="https://www.komoot.de" xmlns="http://www.topografix.com/GPX/1/1" xmlns:xsi="http://www.w3.org/2001/XMLSchema-instance" xsi:schemaLocation="http://www.topografix.com/GPX/1/1 http://www.topografix.com/GPX/1/1/gpx.xsd">
  <metadata>
    <name>06_letzter_Loop</name>
    <author>
      <link href="https://www.komoot.de">
        <text>komoot</text>
        <type>text/html</type>
      </link>
    </author>
  </metadata>
  <trk>
    <name>06_letzter_Loop</name>
    <type>jogging</type>
    <trkseg>
      <trkpt lat="47.359392" lon="8.527663">
        <ele>425.205905</ele>
        <time>2026-09-09T19:11:07.411Z</time>
      </trkpt>
      <trkpt lat="47.359701" lon="8.527553">
        <ele>425.205905</ele>
        <time>2026-09-09T19:11:19.958Z</time>
      </trkpt>
      <trkpt lat="47.359825" lon="8.527509">
        <ele>425.205905</ele>
        <time>2026-09-09T19:11:24.970Z</time>
      </trkpt>
      <trkpt lat="47.360426" lon="8.527288">
        <ele>425.073514</ele>
        <time>2026-09-09T19:11:49.066Z</time>
      </trkpt>
      <trkpt lat="47.360441" lon="8.527256">
        <ele>425.052419</ele>
        <time>2026-09-09T19:11:50.055Z</time>
      </trkpt>
      <trkpt lat="47.360416" lon="8.526918">
        <ele>424.868102</ele>
        <time>2026-09-09T19:11:59.035Z</time>
      </trkpt>
      <trkpt lat="47.360401" lon="8.526725">
        <ele>424.762792</ele>
        <time>2026-09-09T19:12:04.251Z</time>
      </trkpt>
      <trkpt lat="47.360432" lon="8.526719">
        <ele>424.737771</ele>
        <time>2026-09-09T19:12:05.502Z</time>
      </trkpt>
      <trkpt lat="47.360428" lon="8.526666">
        <ele>424.708862</ele>
        <time>2026-09-09T19:12:06.966Z</time>
      </trkpt>
      <trkpt lat="47.360425" lon="8.526625">
        <ele>424.686507</ele>
        <time>2026-09-09T19:12:08.063Z</time>
      </trkpt>
      <trkpt lat="47.360394" lon="8.526202">
        <ele>424.455864</ele>
        <time>2026-09-09T19:12:19.676Z</time>
      </trkpt>
      <trkpt lat="47.360388" lon="8.526114">
        <ele>424.407918</ele>
        <time>2026-09-09T19:12:22.115Z</time>
      </trkpt>
      <trkpt lat="47.360367" lon="8.525788">
        <ele>424.230399</ele>
        <time>2026-09-09T19:12:31.208Z</time>
      </trkpt>
      <trkpt lat="47.360362" lon="8.525718">
        <ele>424.192242</ele>
        <time>2026-09-09T19:12:33.156Z</time>
      </trkpt>
      <trkpt lat="47.360358" lon="8.525660">
        <ele>424.160638</ele>
        <time>2026-09-09T19:12:34.785Z</time>
      </trkpt>
      <trkpt lat="47.360391" lon="8.525654">
        <ele>424.134029</ele>
        <time>2026-09-09T19:12:36.137Z</time>
      </trkpt>
      <trkpt lat="47.360354" lon="8.525204">
        <ele>423.888297</ele>
        <time>2026-09-09T19:12:48.718Z</time>
      </trkpt>
      <trkpt lat="47.360333" lon="8.524889">
        <ele>423.792903</ele>
        <time>2026-09-09T19:12:57.590Z</time>
      </trkpt>
      <trkpt lat="47.360622" lon="8.524548">
        <ele>423.949935</ele>
        <time>2026-09-09T19:13:12.864Z</time>
      </trkpt>
      <trkpt lat="47.360587" lon="8.524491">
        <ele>423.972054</ele>
        <time>2026-09-09T19:13:15.031Z</time>
      </trkpt>
      <trkpt lat="47.360561" lon="8.524449">
        <ele>423.988413</ele>
        <time>2026-09-09T19:13:16.646Z</time>
      </trkpt>
      <trkpt lat="47.360223" lon="8.523854">
        <ele>424.211678</ele>
        <time>2026-09-09T19:13:38.884Z</time>
      </trkpt>
      <trkpt lat="47.360172" lon="8.523728">
        <ele>424.253880</ele>
        <time>2026-09-09T19:13:43.013Z</time>
      </trkpt>
      <trkpt lat="47.360137" lon="8.523640">
        <ele>424.283220</ele>
        <time>2026-09-09T19:13:45.873Z</time>
      </trkpt>
      <trkpt lat="47.359973" lon="8.523141">
        <ele>424.442686</ele>
        <time>2026-09-09T19:14:01.337Z</time>
      </trkpt>
      <trkpt lat="47.359947" lon="8.523081">
        <ele>424.463165</ele>
        <time>2026-09-09T19:14:03.322Z</time>
      </trkpt>
      <trkpt lat="47.359842" lon="8.523155">
        <ele>424.512551</ele>
        <time>2026-09-09T19:14:08.167Z</time>
      </trkpt>
      <trkpt lat="47.359421" lon="8.523285">
        <ele>424.848630</ele>
        <time>2026-09-09T19:14:26.306Z</time>
      </trkpt>
      <trkpt lat="47.358817" lon="8.523432">
        <ele>425.349941</ele>
        <time>2026-09-09T19:14:53.356Z</time>
      </trkpt>
      <trkpt lat="47.358490" lon="8.523560">
        <ele>425.626986</ele>
        <time>2026-09-09T19:15:07.899Z</time>
      </trkpt>
      <trkpt lat="47.358355" lon="8.523615">
        <ele>425.741674</ele>
        <time>2026-09-09T19:15:13.798Z</time>
      </trkpt>
      <trkpt lat="47.358192" lon="8.523669">
        <ele>425.878480</ele>
        <time>2026-09-09T19:15:20.759Z</time>
      </trkpt>
      <trkpt lat="47.358177" lon="8.523675">
        <ele>425.891207</ele>
        <time>2026-09-09T19:15:21.391Z</time>
      </trkpt>
      <trkpt lat="47.358040" lon="8.523716">
        <ele>425.997538</ele>
        <time>2026-09-09T19:15:27.089Z</time>
      </trkpt>
      <trkpt lat="47.357970" lon="8.523737">
        <ele>425.885243</ele>
        <time>2026-09-09T19:15:30.009Z</time>
      </trkpt>
      <trkpt lat="47.357932" lon="8.523748">
        <ele>425.824366</ele>
        <time>2026-09-09T19:15:31.546Z</time>
      </trkpt>
      <trkpt lat="47.357925" lon="8.523710">
        <ele>425.782428</ele>
        <time>2026-09-09T19:15:32.644Z</time>
      </trkpt>
      <trkpt lat="47.357889" lon="8.523721">
        <ele>425.724633</ele>
        <time>2026-09-09T19:15:34.118Z</time>
      </trkpt>
      <trkpt lat="47.357631" lon="8.523799">
        <ele>425.310615</ele>
        <time>2026-09-09T19:15:44.678Z</time>
      </trkpt>
      <trkpt lat="47.357636" lon="8.523838">
        <ele>425.268344</ele>
        <time>2026-09-09T19:15:45.751Z</time>
      </trkpt>
      <trkpt lat="47.357489" lon="8.523883">
        <ele>425.032331</ele>
        <time>2026-09-09T19:15:51.723Z</time>
      </trkpt>
      <trkpt lat="47.357332" lon="8.523930">
        <ele>424.780489</ele>
        <time>2026-09-09T19:15:58.052Z</time>
      </trkpt>
      <trkpt lat="47.357294" lon="8.523941">
        <ele>424.719611</ele>
        <time>2026-09-09T19:15:59.570Z</time>
      </trkpt>
      <trkpt lat="47.357050" lon="8.524011">
        <ele>424.328845</ele>
        <time>2026-09-09T19:16:09.267Z</time>
      </trkpt>
      <trkpt lat="47.357021" lon="8.524017">
        <ele>424.282809</ele>
        <time>2026-09-09T19:16:10.386Z</time>
      </trkpt>
      <trkpt lat="47.356986" lon="8.524024">
        <ele>424.227283</ele>
        <time>2026-09-09T19:16:11.774Z</time>
      </trkpt>
      <trkpt lat="47.356936" lon="8.524034">
        <ele>424.147960</ele>
        <time>2026-09-09T19:16:13.695Z</time>
      </trkpt>
      <trkpt lat="47.356676" lon="8.524088">
        <ele>423.735192</ele>
        <time>2026-09-09T19:16:23.900Z</time>
      </trkpt>
      <trkpt lat="47.356615" lon="8.524104">
        <ele>423.637792</ele>
        <time>2026-09-09T19:16:26.310Z</time>
      </trkpt>
      <trkpt lat="47.355362" lon="8.524177">
        <ele>421.471016</ele>
        <time>2026-09-09T19:17:15.184Z</time>
      </trkpt>
      <trkpt lat="47.355326" lon="8.524144">
        <ele>421.395768</ele>
        <time>2026-09-09T19:17:16.869Z</time>
      </trkpt>
      <trkpt lat="47.355272" lon="8.524002">
        <ele>421.199877</ele>
        <time>2026-09-09T19:17:21.227Z</time>
      </trkpt>
      <trkpt lat="47.355252" lon="8.523950">
        <ele>421.127946</ele>
        <time>2026-09-09T19:17:22.831Z</time>
      </trkpt>
      <trkpt lat="47.355193" lon="8.523638">
        <ele>420.738279</ele>
        <time>2026-09-09T19:17:31.507Z</time>
      </trkpt>
      <trkpt lat="47.355148" lon="8.523479">
        <ele>420.530989</ele>
        <time>2026-09-09T19:17:36.140Z</time>
      </trkpt>
      <trkpt lat="47.355142" lon="8.523458">
        <ele>420.503573</ele>
        <time>2026-09-09T19:17:36.736Z</time>
      </trkpt>
      <trkpt lat="47.355135" lon="8.523436">
        <ele>420.474334</ele>
        <time>2026-09-09T19:17:37.386Z</time>
      </trkpt>
      <trkpt lat="47.355013" lon="8.523019">
        <ele>419.981219</ele>
        <time>2026-09-09T19:17:49.617Z</time>
      </trkpt>
      <trkpt lat="47.354964" lon="8.522837">
        <ele>419.980317</ele>
        <time>2026-09-09T19:17:54.899Z</time>
      </trkpt>
      <trkpt lat="47.354942" lon="8.522770">
        <ele>419.979974</ele>
        <time>2026-09-09T19:17:56.925Z</time>
      </trkpt>
      <trkpt lat="47.354935" lon="8.522747">
        <ele>419.979858</ele>
        <time>2026-09-09T19:17:57.612Z</time>
      </trkpt>
      <trkpt lat="47.354850" lon="8.522672">
        <ele>419.979185</ele>
        <time>2026-09-09T19:18:01.557Z</time>
      </trkpt>
      <trkpt lat="47.354477" lon="8.522484">
        <ele>419.976505</ele>
        <time>2026-09-09T19:18:17.606Z</time>
      </trkpt>
      <trkpt lat="47.354424" lon="8.522457">
        <ele>419.976123</ele>
        <time>2026-09-09T19:18:19.930Z</time>
      </trkpt>
      <trkpt lat="47.353522" lon="8.521930">
        <ele>419.969527</ele>
        <time>2026-09-09T19:19:00.527Z</time>
      </trkpt>
      <trkpt lat="47.352497" lon="8.521342">
        <ele>420.759329</ele>
        <time>2026-09-09T19:19:47.518Z</time>
      </trkpt>
      <trkpt lat="47.352200" lon="8.521130">
        <ele>421.007421</ele>
        <time>2026-09-09T19:20:01.424Z</time>
      </trkpt>
      <trkpt lat="47.351929" lon="8.520913">
        <ele>421.239272</ele>
        <time>2026-09-09T19:20:16.619Z</time>
      </trkpt>
      <trkpt lat="47.351881" lon="8.520726">
        <ele>421.325680</ele>
        <time>2026-09-09T19:20:23.234Z</time>
      </trkpt>
      <trkpt lat="47.351843" lon="8.520407">
        <ele>421.358845</ele>
        <time>2026-09-09T19:20:33.911Z</time>
      </trkpt>
      <trkpt lat="47.351774" lon="8.520142">
        <ele>421.387915</ele>
        <time>2026-09-09T19:20:43.218Z</time>
      </trkpt>
      <trkpt lat="47.351767" lon="8.520120">
        <ele>421.390403</ele>
        <time>2026-09-09T19:20:44.007Z</time>
      </trkpt>
      <trkpt lat="47.351752" lon="8.520105">
        <ele>421.393142</ele>
        <time>2026-09-09T19:20:44.897Z</time>
      </trkpt>
      <trkpt lat="47.351752" lon="8.520105">
        <ele>421.393142</ele>
        <time>2026-09-09T19:20:44.897Z</time>
      </trkpt>
      <trkpt lat="47.351741" lon="8.520076">
        <ele>421.396545</ele>
        <time>2026-09-09T19:20:45.972Z</time>
      </trkpt>
      <trkpt lat="47.351539" lon="8.519279">
        <ele>421.483678</ele>
        <time>2026-09-09T19:21:09.598Z</time>
      </trkpt>
      <trkpt lat="47.351374" lon="8.518883">
        <ele>421.531281</ele>
        <time>2026-09-09T19:21:22.478Z</time>
      </trkpt>
      <trkpt lat="47.351320" lon="8.518574">
        <ele>421.563957</ele>
        <time>2026-09-09T19:21:31.310Z</time>
      </trkpt>
      <trkpt lat="47.351288" lon="8.518398">
        <ele>421.582617</ele>
        <time>2026-09-09T19:21:36.349Z</time>
      </trkpt>
      <trkpt lat="47.351247" lon="8.518330">
        <ele>421.591938</ele>
        <time>2026-09-09T19:21:38.874Z</time>
      </trkpt>
      <trkpt lat="47.351224" lon="8.518204">
        <ele>421.755498</ele>
        <time>2026-09-09T19:21:42.514Z</time>
      </trkpt>
      <trkpt lat="47.351187" lon="8.518047">
        <ele>421.991610</ele>
        <time>2026-09-09T19:21:47.228Z</time>
      </trkpt>
      <trkpt lat="47.351133" lon="8.517890">
        <ele>422.241708</ele>
        <time>2026-09-09T19:21:52.250Z</time>
      </trkpt>
      <trkpt lat="47.351082" lon="8.517734">
        <ele>422.487743</ele>
        <time>2026-09-09T19:21:57.286Z</time>
      </trkpt>
      <trkpt lat="47.350933" lon="8.517390">
        <ele>423.067691</ele>
        <time>2026-09-09T19:22:09.532Z</time>
      </trkpt>
      <trkpt lat="47.350701" lon="8.516986">
        <ele>423.819950</ele>
        <time>2026-09-09T19:22:25.972Z</time>
      </trkpt>
      <trkpt lat="47.350662" lon="8.516907">
        <ele>423.958793</ele>
        <time>2026-09-09T19:22:29.058Z</time>
      </trkpt>
      <trkpt lat="47.350491" lon="8.516721">
        <ele>424.404138</ele>
        <time>2026-09-09T19:22:38.977Z</time>
      </trkpt>
      <trkpt lat="47.350379" lon="8.516592">
        <ele>424.701986</ele>
        <time>2026-09-09T19:22:45.621Z</time>
      </trkpt>
      <trkpt lat="47.350258" lon="8.516443">
        <ele>425.032362</ele>
        <time>2026-09-09T19:22:53.005Z</time>
      </trkpt>
      <trkpt lat="47.350071" lon="8.516291">
        <ele>425.385737</ele>
        <time>2026-09-09T19:23:03.111Z</time>
      </trkpt>
      <trkpt lat="47.349917" lon="8.516186">
        <ele>425.450972</ele>
        <time>2026-09-09T19:23:10.958Z</time>
      </trkpt>
      <trkpt lat="47.349724" lon="8.516027">
        <ele>425.535970</ele>
        <time>2026-09-09T19:23:20.714Z</time>
      </trkpt>
      <trkpt lat="47.349612" lon="8.515965">
        <ele>425.581970</ele>
        <time>2026-09-09T19:23:26.693Z</time>
      </trkpt>
      <trkpt lat="47.349574" lon="8.515865">
        <ele>425.611843</ele>
        <time>2026-09-09T19:23:30.537Z</time>
      </trkpt>
      <trkpt lat="47.349493" lon="8.515872">
        <ele>425.643045</ele>
        <time>2026-09-09T19:23:34.526Z</time>
      </trkpt>
      <trkpt lat="47.349444" lon="8.515869">
        <ele>425.661904</ele>
        <time>2026-09-09T19:23:36.941Z</time>
      </trkpt>
      <trkpt lat="47.349057" lon="8.515780">
        <ele>425.812523</ele>
        <time>2026-09-09T19:23:53.064Z</time>
      </trkpt>
      <trkpt lat="47.349052" lon="8.515879">
        <ele>425.838389</ele>
        <time>2026-09-09T19:23:55.733Z</time>
      </trkpt>
      <trkpt lat="47.349037" lon="8.516193">
        <ele>425.920404</ele>
        <time>2026-09-09T19:24:04.313Z</time>
      </trkpt>
      <trkpt lat="47.349024" lon="8.516502">
        <ele>426.001068</ele>
        <time>2026-09-09T19:24:12.644Z</time>
      </trkpt>
      <trkpt lat="47.349021" lon="8.516568">
        <ele>426.018303</ele>
        <time>2026-09-09T19:24:14.405Z</time>
      </trkpt>
      <trkpt lat="47.349002" lon="8.516921">
        <ele>425.889407</ele>
        <time>2026-09-09T19:24:23.910Z</time>
      </trkpt>
      <trkpt lat="47.348991" lon="8.517063">
        <ele>425.775006</ele>
        <time>2026-09-09T19:24:27.686Z</time>
      </trkpt>
      <trkpt lat="47.348990" lon="8.517103">
        <ele>425.742967</ele>
        <time>2026-09-09T19:24:28.751Z</time>
      </trkpt>
      <trkpt lat="47.348985" lon="8.517290">
        <ele>425.593170</ele>
        <time>2026-09-09T19:24:33.676Z</time>
      </trkpt>
      <trkpt lat="47.348982" lon="8.517406">
        <ele>425.500253</ele>
        <time>2026-09-09T19:24:36.719Z</time>
      </trkpt>
      <trkpt lat="47.349104" lon="8.517426">
        <ele>425.355238</ele>
        <time>2026-09-09T19:24:41.477Z</time>
      </trkpt>
      <trkpt lat="47.349306" lon="8.517460">
        <ele>425.115050</ele>
        <time>2026-09-09T19:24:49.520Z</time>
      </trkpt>
      <trkpt lat="47.349577" lon="8.517551">
        <ele>424.786713</ele>
        <time>2026-09-09T19:25:00.812Z</time>
      </trkpt>
      <trkpt lat="47.349671" lon="8.517617">
        <ele>424.663737</ele>
        <time>2026-09-09T19:25:05.019Z</time>
      </trkpt>
      <trkpt lat="47.349846" lon="8.517756">
        <ele>424.428959</ele>
        <time>2026-09-09T19:25:13.043Z</time>
      </trkpt>
      <trkpt lat="47.350444" lon="8.518645">
        <ele>423.523862</ele>
        <time>2026-09-09T19:25:47.054Z</time>
      </trkpt>
      <trkpt lat="47.350501" lon="8.518783">
        <ele>423.419498</ele>
        <time>2026-09-09T19:25:51.432Z</time>
      </trkpt>
      <trkpt lat="47.350773" lon="8.519045">
        <ele>423.109939</ele>
        <time>2026-09-09T19:26:06.730Z</time>
      </trkpt>
      <trkpt lat="47.350861" lon="8.519246">
        <ele>422.955408</ele>
        <time>2026-09-09T19:26:14.410Z</time>
      </trkpt>
      <trkpt lat="47.350907" lon="8.519480">
        <ele>422.798077</ele>
        <time>2026-09-09T19:26:22.211Z</time>
      </trkpt>
      <trkpt lat="47.351182" lon="8.520397">
        <ele>422.173241</ele>
        <time>2026-09-09T19:26:54.283Z</time>
      </trkpt>
      <trkpt lat="47.351457" lon="8.521234">
        <ele>421.777459</ele>
        <time>2026-09-09T19:27:24.010Z</time>
      </trkpt>
      <trkpt lat="47.351579" lon="8.521524">
        <ele>421.632223</ele>
        <time>2026-09-09T19:27:34.945Z</time>
      </trkpt>
      <trkpt lat="47.351683" lon="8.521941">
        <ele>421.443165</ele>
        <time>2026-09-09T19:27:49.217Z</time>
      </trkpt>
      <trkpt lat="47.352005" lon="8.522922">
        <ele>421.392724</ele>
        <time>2026-09-09T19:28:24.543Z</time>
      </trkpt>
      <trkpt lat="47.352204" lon="8.523497">
        <ele>422.167645</ele>
        <time>2026-09-09T19:28:46.444Z</time>
      </trkpt>
      <trkpt lat="47.352298" lon="8.523729">
        <ele>422.492077</ele>
        <time>2026-09-09T19:28:55.728Z</time>
      </trkpt>
      <trkpt lat="47.352358" lon="8.523817">
        <ele>422.641915</ele>
        <time>2026-09-09T19:29:00.097Z</time>
      </trkpt>
      <trkpt lat="47.352374" lon="8.523901">
        <ele>422.746637</ele>
        <time>2026-09-09T19:29:03.135Z</time>
      </trkpt>
      <trkpt lat="47.352337" lon="8.524065">
        <ele>422.954090</ele>
        <time>2026-09-09T19:29:09.348Z</time>
      </trkpt>
      <trkpt lat="47.352362" lon="8.524086">
        <ele>423.005046</ele>
        <time>2026-09-09T19:29:10.606Z</time>
      </trkpt>
      <trkpt lat="47.352482" lon="8.524309">
        <ele>423.346832</ele>
        <time>2026-09-09T19:29:19.512Z</time>
      </trkpt>
      <trkpt lat="47.352607" lon="8.524540">
        <ele>423.701646</ele>
        <time>2026-09-09T19:29:28.770Z</time>
      </trkpt>
      <trkpt lat="47.352677" lon="8.524665">
        <ele>423.896280</ele>
        <time>2026-09-09T19:29:33.837Z</time>
      </trkpt>
      <trkpt lat="47.352689" lon="8.524496">
        <ele>424.100217</ele>
        <time>2026-09-09T19:29:39.118Z</time>
      </trkpt>
      <trkpt lat="47.352749" lon="8.524459">
        <ele>424.215409</ele>
        <time>2026-09-09T19:29:42.145Z</time>
      </trkpt>
      <trkpt lat="47.352965" lon="8.524669">
        <ele>424.932317</ele>
        <time>2026-09-09T19:29:54.107Z</time>
      </trkpt>
      <trkpt lat="47.352993" lon="8.524722">
        <ele>425.065181</ele>
        <time>2026-09-09T19:29:56.223Z</time>
      </trkpt>
      <trkpt lat="47.352990" lon="8.524755">
        <ele>425.131002</ele>
        <time>2026-09-09T19:29:57.280Z</time>
      </trkpt>
      <trkpt lat="47.353015" lon="8.524826">
        <ele>425.289184</ele>
        <time>2026-09-09T19:29:59.768Z</time>
      </trkpt>
      <trkpt lat="47.353185" lon="8.524963">
        <ele>425.854353</ele>
        <time>2026-09-09T19:30:08.972Z</time>
      </trkpt>
      <trkpt lat="47.353450" lon="8.525118">
        <ele>426.686109</ele>
        <time>2026-09-09T19:30:22.501Z</time>
      </trkpt>
      <trkpt lat="47.354010" lon="8.525310">
        <ele>428.363667</ele>
        <time>2026-09-09T19:30:49.532Z</time>
      </trkpt>
      <trkpt lat="47.354136" lon="8.525444">
        <ele>428.816817</ele>
        <time>2026-09-09T19:30:56.527Z</time>
      </trkpt>
      <trkpt lat="47.354368" lon="8.525885">
        <ele>429.526422</ele>
        <time>2026-09-09T19:31:13.156Z</time>
      </trkpt>
      <trkpt lat="47.354418" lon="8.525948">
        <ele>429.528458</ele>
        <time>2026-09-09T19:31:16.011Z</time>
      </trkpt>
      <trkpt lat="47.354512" lon="8.525973">
        <ele>429.531417</ele>
        <time>2026-09-09T19:31:20.134Z</time>
      </trkpt>
      <trkpt lat="47.354512" lon="8.526003">
        <ele>429.532047</ele>
        <time>2026-09-09T19:31:21.031Z</time>
      </trkpt>
      <trkpt lat="47.354513" lon="8.526042">
        <ele>429.532866</ele>
        <time>2026-09-09T19:31:22.168Z</time>
      </trkpt>
      <trkpt lat="47.354514" lon="8.526084">
        <ele>429.533748</ele>
        <time>2026-09-09T19:31:23.417Z</time>
      </trkpt>
      <trkpt lat="47.354514" lon="8.526111">
        <ele>429.534315</ele>
        <time>2026-09-09T19:31:24.213Z</time>
      </trkpt>
      <trkpt lat="47.354512" lon="8.526154">
        <ele>429.535219</ele>
        <time>2026-09-09T19:31:25.444Z</time>
      </trkpt>
      <trkpt lat="47.354791" lon="8.526714">
        <ele>429.549808</ele>
        <time>2026-09-09T19:31:45.329Z</time>
      </trkpt>
      <trkpt lat="47.354885" lon="8.526793">
        <ele>429.553159</ele>
        <time>2026-09-09T19:31:49.776Z</time>
      </trkpt>
      <trkpt lat="47.355000" lon="8.526813">
        <ele>429.556746</ele>
        <time>2026-09-09T19:31:54.438Z</time>
      </trkpt>
      <trkpt lat="47.356240" lon="8.526914">
        <ele>428.581009</ele>
        <time>2026-09-09T19:32:43.468Z</time>
      </trkpt>
      <trkpt lat="47.356254" lon="8.526915">
        <ele>428.555996</ele>
        <time>2026-09-09T19:32:44.028Z</time>
      </trkpt>
      <trkpt lat="47.356291" lon="8.526917">
        <ele>428.489924</ele>
        <time>2026-09-09T19:32:45.510Z</time>
      </trkpt>
      <trkpt lat="47.356390" lon="8.526923">
        <ele>428.313105</ele>
        <time>2026-09-09T19:32:49.371Z</time>
      </trkpt>
      <trkpt lat="47.356558" lon="8.526933">
        <ele>428.013058</ele>
        <time>2026-09-09T19:32:56.006Z</time>
      </trkpt>
      <trkpt lat="47.356593" lon="8.526935">
        <ele>427.950553</ele>
        <time>2026-09-09T19:32:57.384Z</time>
      </trkpt>
      <trkpt lat="47.356609" lon="8.526936">
        <ele>427.921974</ele>
        <time>2026-09-09T19:32:57.992Z</time>
      </trkpt>
      <trkpt lat="47.357374" lon="8.526950">
        <ele>426.556694</ele>
        <time>2026-09-09T19:33:27.993Z</time>
      </trkpt>
      <trkpt lat="47.357375" lon="8.526995">
        <ele>426.502264</ele>
        <time>2026-09-09T19:33:29.170Z</time>
      </trkpt>
      <trkpt lat="47.357376" lon="8.527050">
        <ele>426.435751</ele>
        <time>2026-09-09T19:33:30.638Z</time>
      </trkpt>
      <trkpt lat="47.357407" lon="8.527050">
        <ele>426.380430</ele>
        <time>2026-09-09T19:33:31.863Z</time>
      </trkpt>
      <trkpt lat="47.357442" lon="8.527051">
        <ele>426.368156</ele>
        <time>2026-09-09T19:33:33.201Z</time>
      </trkpt>
      <trkpt lat="47.357886" lon="8.527051">
        <ele>426.368156</ele>
        <time>2026-09-09T19:33:50.589Z</time>
      </trkpt>
      <trkpt lat="47.358389" lon="8.527064">
        <ele>426.368156</ele>
        <time>2026-09-09T19:34:10.555Z</time>
      </trkpt>
      <trkpt lat="47.358469" lon="8.527068">
        <ele>426.368156</ele>
        <time>2026-09-09T19:34:13.836Z</time>
      </trkpt>
      <trkpt lat="47.358496" lon="8.527069">
        <ele>426.368156</ele>
        <time>2026-09-09T19:34:14.968Z</time>
      </trkpt>
      <trkpt lat="47.359124" lon="8.526972">
        <ele>426.368156</ele>
        <time>2026-09-09T19:34:41.470Z</time>
      </trkpt>
      <trkpt lat="47.359153" lon="8.526955">
        <ele>426.368156</ele>
        <time>2026-09-09T19:34:42.800Z</time>
      </trkpt>
      <trkpt lat="47.359174" lon="8.527245">
        <ele>426.368156</ele>
        <time>2026-09-09T19:34:51.272Z</time>
      </trkpt>
      <trkpt lat="47.359211" lon="8.527679">
        <ele>426.368156</ele>
        <time>2026-09-09T19:35:04.273Z</time>
      </trkpt>
      <trkpt lat="47.359241" lon="8.527672">
        <ele>426.368156</ele>
        <time>2026-09-09T19:35:05.603Z</time>
      </trkpt>
      <trkpt lat="47.359271" lon="8.527664">
        <ele>426.368156</ele>
        <time>2026-09-09T19:35:06.933Z</time>
      </trkpt>
      <trkpt lat="47.359302" lon="8.527695">
        <ele>426.368156</ele>
        <time>2026-09-09T19:35:08.604Z</time>
      </trkpt>
      <trkpt lat="47.359392" lon="8.527663">
        <ele>426.368156</ele>
        <time>2026-09-09T19:35:12.646Z</time>
      </trkpt>
    </trkseg>
  </trk>
</gpx>